OBJECT_NAME,OBJECT_ID,EPOCH,MEAN_MOTION,ECCENTRICITY,INCLINATION,RA_OF_ASC_NODE,ARG_OF_PERICENTER,MEAN_ANOMALY,EPHEMERIS_TYPE,CLASSIFICATION_TYPE,NORAD_CAT_ID,ELEMENT_SET_NO,REV_AT_EPOCH,BSTAR,MEAN_MOTION_DOT,MEAN_MOTION_DDOT
SAUDISAT 1C (SO-50),2002-058C,2026-06-19T20:27:43.384608,14.83051819,.00751619,64.5513,120.7383,261.9782,97.2791,0,U,27607,999,26485,.10488845E-3,.74E-5,0
SAUDISAT 2,2004-025F,2026-06-19T13:41:27.662784,14.56685005,.00235186,98.5507,170.6140,290.5721,69.2953,0,U,28371,999,16609,.49334079E-4,.171E-5,0
SAUDISAT 3,2007-012B,2026-06-19T18:35:40.028640,14.71426847,.00137936,98.1456,121.1772,215.0823,144.9476,0,U,31118,999,2812,.39027196E-4,.191E-5,0
PISAT,2016-059B,2026-06-19T11:02:19.026816,14.68986663,.00285769,97.8178,170.8151,195.3619,164.6722,0,U,41784,999,52007,.11764091E-3,.646E-5,0
FLYING LAPTOP,2017-042G,2026-06-19T22:02:36.368736,15.01160904,.00196795,97.4702,326.3461,112.8380,247.4926,0,U,42831,999,48686,.22508966E-3,.2839E-4,0
SALSAT,2020-068K,2026-06-19T22:59:40.174368,15.29832652,.00078926,97.8854,174.1914,296.5001,63.5428,0,U,46495,999,31578,.22355472E-3,.6379E-4,0
